[{"OBJECT_NAME":"PROTOMETHEE","OBJECT_ID":"2023-174BT","EPOCH":"2026-03-09T23:28:08.029344","MEAN_MOTION":15.30202663,"ECCENTRICITY":0.00088339,"INCLINATION":97.3826,"RA_OF_ASC_NODE":147.9552,"ARG_OF_PERICENTER":148.5993,"MEAN_ANOMALY":211.5776,"EPHEMERIS_TYPE":0,"CLASSIFICATION_TYPE":"U","NORAD_CAT_ID":58321,"ELEMENT_SET_NO":999,"REV_AT_EPOCH":12979,"BSTAR":0.00015715731,"MEAN_MOTION_DOT":4.52e-5,"MEAN_MOTION_DDOT":0},{"OBJECT_NAME":"STARLINK-35995","OBJECT_ID":"2025-278AC","EPOCH":"2026-03-09T12:24:38.564928","MEAN_MOTION":15.27624209,"ECCENTRICITY":0.00019941,"INCLINATION":43.0049,"RA_OF_ASC_NODE":115.2556,"ARG_OF_PERICENTER":292.3368,"MEAN_ANOMALY":67.7273,"EPHEMERIS_TYPE":0,"CLASSIFICATION_TYPE":"U","NORAD_CAT_ID":66817,"ELEMENT_SET_NO":999,"REV_AT_EPOCH":1518,"BSTAR":0.0011625031,"MEAN_MOTION_DOT":0.0003191,"MEAN_MOTION_DDOT":0}]
